[{"OBJECT_NAME":"NOAA 18","OBJECT_ID":"2005-018A","EPOCH":"2026-04-02T19:37:27.706656","MEAN_MOTION":14.13716049,"ECCENTRICITY":0.0014293,"INCLINATION":98.8125,"RA_OF_ASC_NODE":173.5833,"ARG_OF_PERICENTER":9.8512,"MEAN_ANOMALY":350.2939,"EPHEMERIS_TYPE":0,"CLASSIFICATION_TYPE":"U","NORAD_CAT_ID":28654,"ELEMENT_SET_NO":999,"REV_AT_EPOCH":7566,"BSTAR":7.9357e-5,"MEAN_MOTION_DOT":1.06e-6,"MEAN_MOTION_DDOT":0},{"OBJECT_NAME":"NOAA 19","OBJECT_ID":"2009-005A","EPOCH":"2026-04-02T19:16:33.760128","MEAN_MOTION":14.13461704,"ECCENTRICITY":0.0012876,"INCLINATION":98.9563,"RA_OF_ASC_NODE":163.6096,"ARG_OF_PERICENTER":241.1483,"MEAN_ANOMALY":118.8397,"EPHEMERIS_TYPE":0,"CLASSIFICATION_TYPE":"U","NORAD_CAT_ID":33591,"ELEMENT_SET_NO":999,"REV_AT_EPOCH":88383,"BSTAR":7.3263e-5,"MEAN_MOTION_DOT":9.3e-7,"MEAN_MOTION_DDOT":0},{"OBJECT_NAME":"SUOMI NPP","OBJECT_ID":"2011-061A","EPOCH":"2026-04-02T20:23:17.948256","MEAN_MOTION":14.19500324,"ECCENTRICITY":0.0001937,"INCLINATION":98.7901,"RA_OF_ASC_NODE":34.2637,"ARG_OF_PERICENTER":147.6795,"MEAN_ANOMALY":212.45,"EPHEMERIS_TYPE":0,"CLASSIFICATION_TYPE":"U","NORAD_CAT_ID":37849,"ELEMENT_SET_NO":999,"REV_AT_EPOCH":74775,"BSTAR":8.8596e-5,"MEAN_MOTION_DOT":1.42e-6,"MEAN_MOTION_DDOT":0},{"OBJECT_NAME":"NOAA 20 (JPSS-1)","OBJECT_ID":"2017-073A","EPOCH":"2026-04-02T19:02:21.533856","MEAN_MOTION":14.19542428,"ECCENTRICITY":0.0002013,"INCLINATION":98.7722,"RA_OF_ASC_NODE":32.9449,"ARG_OF_PERICENTER":104.9579,"MEAN_ANOMALY":255.182,"EPHEMERIS_TYPE":0,"CLASSIFICATION_TYPE":"U","NORAD_CAT_ID":43013,"ELEMENT_SET_NO":999,"REV_AT_EPOCH":43377,"BSTAR":7.3445e-5,"MEAN_MOTION_DOT":1.11e-6,"MEAN_MOTION_DDOT":0}]
