NOAA 18                 
1 28654U 05018A   26092.81768179  .00000106  00000+0  79357-4 0  9996
2 28654  98.8125 173.5833 0014293   9.8512 350.2939 14.13716049 75665
NOAA 19                 
1 33591U 09005A   26092.80316852  .00000093  00000+0  73263-4 0  9993
2 33591  98.9563 163.6096 0012876 241.1483 118.8397 14.13461704883839
SUOMI NPP               
1 37849U 11061A   26092.84951329  .00000142  00000+0  88596-4 0  9996
2 37849  98.7901  34.2637 0001937 147.6795 212.4500 14.19500324747754
NOAA 20 (JPSS-1)        
1 43013U 17073A   26092.79330479  .00000111  00000+0  73445-4 0  9999
2 43013  98.7722  32.9449 0002013 104.9579 255.1820 14.19542428433777
